NORAD_CAT_ID,OBJECT_NAME,OBJECT_TYPE,EPOCH,MEAN_MOTION,ECCENTRICITY,INCLINATION,RA_OF_ASC_NODE,ARG_OF_PERICENTER,MEAN_ANOMALY,BSTAR,MEAN_MOTION_DOT,MEAN_MOTION_DDOT,TLE_LINE0,TLE_LINE1,TLE_LINE2,SEMIMAJOR_AXIS,PERIOD,APOGEE,PERIGEE,DECAYED
55761.0,STARLINK-5611,PAYLOAD,2023-11-28 15:03:35,14.98329518,0.0002577,69.9992,162.5677,266.8811,93.2053,1.5455e-05,9.1e-07,0.0,0 STARLINK-5611,1 55761U 23028W   23332.62749002  .00000091  00000-0  15455-4 0  9996,2 55761  69.9992 162.5677 0002577 266.8811  93.2053 14.98329518 41891,6950.194,96.107,573.85,570.268,0.0
55761.0,STARLINK-5611,PAYLOAD,2023-11-28 19:51:59,14.98327726,0.000266,69.9993,162.0628,268.9709,91.1145,-5.5954e-06,-1.6e-06,0.0,0 STARLINK-5611,1 55761U 23028W   23332.82777187 -.00000160  00000-0 -55954-5 0  9991,2 55761  69.9993 162.0628 0002660 268.9709  91.1145 14.98327726 41927,6950.2,96.107,573.914,570.216,0.0
55761.0,STARLINK-5611,PAYLOAD,2023-11-28 23:04:15,14.98328544,0.000266,69.9994,161.7263,269.046,91.0394,2.357e-06,-6.5e-07,0.0,0 STARLINK-5611,1 55761U 23028W   23332.96129118 -.00000065  00000-0  23570-5 0  9993,2 55761  69.9994 161.7263 0002660 269.0460  91.0394 14.98328544 41941,6950.197,96.107,573.911,570.214,0.0
55761.0,STARLINK-5611,PAYLOAD,2023-11-29 13:29:27,14.98333133,0.0002785,69.9993,160.212,271.5597,88.5243,4.2684e-05,4.16e-06,0.0,0 STARLINK-5611,1 55761U 23028W   23333.56212705  .00000416  00000-0  42684-4 0  9990,2 55761  69.9993 160.2120 0002785 271.5597  88.5243 14.98333133 42038,6950.183,96.107,573.984,570.113,0.0
55761.0,STARLINK-5611,PAYLOAD,2023-11-29 19:53:59,14.98334451,0.000277,69.9992,159.5386,270.8674,89.2168,5.5633e-05,5.71e-06,0.0,0 STARLINK-5611,1 55761U 23028W   23333.82916526  .00000571  00000-0  55633-4 0  9991,2 55761  69.9992 159.5386 0002770 270.8674  89.2168 14.98334451 42076,6950.179,96.107,573.969,570.119,0.0
55761.0,STARLINK-5611,PAYLOAD,2023-11-30 19:56:00,14.98330765,0.0002709,69.9996,157.0145,266.0704,94.0145,2.7667e-05,2.37e-06,0.0,0 STARLINK-5611,1 55761U 23028W   23334.83056693  .00000237  00000-0  27667-4 0  9998,2 55761  69.9996 157.0145 0002709 266.0704  94.0145 14.98330765 42229,6950.191,96.107,573.938,570.173,0.0
55761.0,STARLINK-5611,PAYLOAD,2023-12-01 19:58:02,14.98331756,0.0002555,69.9987,154.4868,260.6524,99.4346,-8.0194e-05,-1.05e-05,0.0,0 STARLINK-5611,1 55761U 23028W   23335.83196862 -.00001050  00000-0 -80194-4 0  9992,2 55761  69.9987 154.4868 0002555 260.6524  99.4346 14.98331756 42370,6950.187,96.107,573.828,570.277,0.0
55761.0,STARLINK-5611,PAYLOAD,2023-12-01 21:34:10,14.98329824,0.0002434,69.9993,154.32,256.4382,103.6506,-4.2871e-05,-6.04e-06,0.0,0 STARLINK-5611,1 55761U 23028W   23335.89872920 -.00000604  00000-0 -42871-4 0  9998,2 55761  69.9993 154.3200 0002434 256.4382 103.6506 14.98329824 42387,6950.193,96.107,573.75,570.367,0.0
55761.0,STARLINK-5611,PAYLOAD,2023-12-02 13:35:30,14.98334611,0.0002704,69.9988,152.6362,262.9782,97.107,5.9951e-05,6.22e-06,0.0,0 STARLINK-5611,1 55761U 23028W   23336.56632207  .00000622  00000-0  59951-4 0  9990,2 55761  69.9988 152.6362 0002704 262.9782  97.1070 14.98334611 42481,6950.179,96.107,573.923,570.164,0.0
55761.0,STARLINK-5611,PAYLOAD,2023-12-02 20:00:02,14.9833521,0.0002686,69.9988,151.963,262.4539,97.6315,6.5952e-05,6.94e-06,0.0,0 STARLINK-5611,1 55761U 23028W   23336.83336082  .00000694  00000-0  65952-4 0  9999,2 55761  69.9988 151.9630 0002686 262.4539  97.6315 14.98335210 42523,6950.177,96.107,573.909,570.175,0.0
55761.0,STARLINK-5611,PAYLOAD,2023-12-02 21:36:10,14.98335809,0.0002761,69.9985,151.794,264.7603,95.3241,6.0914e-05,6.34e-06,0.0,0 STARLINK-5611,1 55761U 23028W   23336.90012027  .00000634  00000-0  60914-4 0  9994,2 55761  69.9985 151.7940 0002761 264.7603  95.3241 14.98335809 42531,6950.175,96.107,573.959,570.121,0.0
55761.0,STARLINK-5611,PAYLOAD,2023-12-03 12:01:25,14.98313186,0.0001716,70.002,150.2854,262.4261,97.6703,-5.8418e-05,-7.89e-06,0.0,0 STARLINK-5611,1 55761U 23028W   23337.50098381 -.00000789  00000-0 -58418-4 0  9997,2 55761  70.0020 150.2854 0001716 262.4261  97.6703 14.98313186 42628,6950.245,96.108,573.303,570.917,0.0
55761.0,STARLINK-5611,PAYLOAD,2023-12-03 13:37:33,14.98306262,0.0003223,69.9993,150.117,287.4929,72.5878,-0.00013967,-1.758e-05,0.0,0 STARLINK-5611,1 55761U 23028W   23337.56775105 -.00001758  00000-0 -13967-3 0  9995,2 55761  69.9993 150.1170 0003223 287.4929  72.5878 14.98306262 42630,6950.266,96.109,574.371,569.891,0.0
55761.0,STARLINK-5611,PAYLOAD,2023-12-03 20:02:06,14.98299535,0.0002824,69.9982,149.4371,274.8278,85.2558,-0.00026026,-3.194e-05,0.0,0 STARLINK-5611,1 55761U 23028W   23337.83480091 -.00003194  00000-0 -26026-3 0  9998,2 55761  69.9982 149.4371 0002824 274.8278  85.2558 14.98299535 42679,6950.287,96.109,574.115,570.189,0.0
55761.0,STARLINK-5611,PAYLOAD,2023-12-04 12:03:26,14.98322695,0.0002713,69.9983,147.7546,273.2013,86.8836,-7.6977e-05,-1.011e-05,0.0,0 STARLINK-5611,1 55761U 23028W   23338.50238802 -.00001011  00000-0 -76977-4 0  9991,2 55761  69.9983 147.7546 0002713 273.2013  86.8836 14.98322695 42773,6950.215,96.107,573.966,570.195,0.0
55761.0,STARLINK-5611,PAYLOAD,2023-12-04 13:39:34,14.98322883,0.0002577,69.9991,147.5859,271.179,88.9074,-4.8563e-05,-6.72e-06,0.0,0 STARLINK-5611,1 55761U 23028W   23338.56914754 -.00000672  00000-0 -48563-4 0  9996,2 55761  69.9991 147.5859 0002577 271.1790  88.9074 14.98322883 42781,6950.215,96.107,573.871,570.289,0.0
55761.0,STARLINK-5611,PAYLOAD,2023-12-05 12:05:26,14.98318318,0.000251,69.9996,145.2309,276.4317,83.6556,0.00039453,4.616e-05,0.0,0 STARLINK-5611,1 55761U 23028W   23339.50378207  .00004616  00000-0  39453-3 0  9995,2 55761  69.9996 145.2309 0002510 276.4317  83.6556 14.98318318 42922,6950.229,96.108,573.839,570.35,0.0
55761.0,STARLINK-5611,PAYLOAD,2023-12-05 13:41:34,14.98318858,0.000265,69.9989,145.062,277.2472,82.8386,0.00037322,4.362e-05,0.0,0 STARLINK-5611,1 55761U 23028W   23339.57054268  .00004362  00000-0  37322-3 0  9991,2 55761  69.9989 145.0620 0002650 277.2472  82.8386 14.98318858 42936,6950.227,96.108,573.934,570.251,0.0
55761.0,STARLINK-5611,PAYLOAD,2023-12-06 12:07:27,14.98344327,0.0002468,69.9984,142.7055,267.3224,92.7653,9.2745e-05,1.014e-05,0.0,0 STARLINK-5611,1 55761U 23028W   23340.50517426  .00001014  00000-0  92745-4 0  9998,2 55761  69.9984 142.7055 0002468 267.3224  92.7653 14.98344327 43072,6950.149,96.106,573.729,570.298,0.0
55761.0,STARLINK-5611,PAYLOAD,2023-12-06 21:44:15,14.98345084,0.0002374,69.9985,141.6954,264.0462,96.0427,8.9309e-05,9.73e-06,0.0,0 STARLINK-5611,1 55761U 23028W   23340.90572963  .00000973  00000-0  89309-4 0  9994,2 55761  69.9985 141.6954 0002374 264.0462  96.0427 14.98345084 43137,6950.146,96.106,573.661,570.361,0.0
55761.0,STARLINK-5611,PAYLOAD,2023-12-07 12:09:27,14.98343997,0.0002238,69.9969,140.1775,254.2993,105.7919,-2.5383e-05,-3.96e-06,0.0,0 STARLINK-5611,1 55761U 23028W   23341.50656798 -.00000396  00000-0 -25383-4 0  9993,2 55761  69.9969 140.1775 0002238 254.2993 105.7919 14.98343997 43228,6950.15,96.106,573.57,570.459,0.0
55761.0,STARLINK-5611,PAYLOAD,2023-12-07 20:10:08,14.98337517,0.0002496,69.9963,139.3351,264.4438,95.6437,-9.5516e-05,-1.233e-05,0.0,0 STARLINK-5611,1 55761U 23028W   23341.84037160 -.00001233  00000-0 -95516-4 0  9992,2 55761  69.9963 139.3351 0002496 264.4438  95.6437 14.98337517 43273,6950.17,96.107,573.769,570.3,0.0
55761.0,STARLINK-5611,PAYLOAD,2023-12-08 12:11:28,14.98337524,0.0002649,69.9937,137.647,268.6478,91.4378,-7.624e-05,-1.003e-05,0.0,0 STARLINK-5611,1 55761U 23028W   23342.50796642 -.00001003  00000-0 -76240-4 0  9991,2 55761  69.9937 137.6470 0002649 268.6478  91.4378 14.98337524 43374,6950.17,96.107,573.876,570.194,0.0
55761.0,STARLINK-5611,PAYLOAD,2023-12-09 12:13:28,14.98332522,0.0002685,69.9987,135.1305,269.1519,90.9333,4.7169e-06,-3.7e-07,0.0,0 STARLINK-5611,1 55761U 23028W   23343.50936328 -.00000037  00000-0  47169-5 0  9993,2 55761  69.9987 135.1305 0002685 269.1519  90.9333 14.98332522 43526,6950.185,96.107,573.916,570.184,0.0
55761.0,STARLINK-5611,PAYLOAD,2023-12-10 12:15:29,14.98331536,0.0002467,69.999,132.6058,261.5892,98.4988,4.8441e-06,-3.5e-07,0.0,0 STARLINK-5611,1 55761U 23028W   23344.51076178 -.00000035  00000-0  48441-5 0  9995,2 55761  69.9990 132.6058 0002467 261.5892  98.4988 14.98331536 43674,6950.188,96.107,573.768,570.339,0.0
55761.0,STARLINK-5611,PAYLOAD,2023-12-10 13:51:37,14.9833133,0.0002582,69.999,132.4374,265.7933,94.2931,3.1474e-06,-5.5e-07,0.0,0 STARLINK-5611,1 55761U 23028W   23344.57752207 -.00000055  00000-0  31474-5 0  9995,2 55761  69.9990 132.4374 0002582 265.7933  94.2931 14.98331330 43688,6950.189,96.107,573.848,570.259,0.0
55761.0,STARLINK-5611,PAYLOAD,2023-12-10 20:16:10,14.98331784,0.0002949,69.999,131.7642,275.1471,84.9351,7.3327e-06,-6e-08,0.0,0 STARLINK-5611,1 55761U 23028W   23344.84456183 -.00000006  00000-0  73327-5 0  9998,2 55761  69.9990 131.7642 0002949 275.1471  84.9351 14.98331784 43727,6950.187,96.107,574.102,570.003,0.0
55761.0,STARLINK-5611,PAYLOAD,2023-12-11 12:17:30,14.98330832,0.0002889,69.9992,130.0812,274.3258,85.7571,5.0748e-06,-3.2e-07,0.0,0 STARLINK-5611,1 55761U 23028W   23345.51216175 -.00000032  00000-0  50748-5 0  9999,2 55761  69.9992 130.0812 0002889 274.3258  85.7571 14.98330832 43824,6950.19,96.107,574.063,570.047,0.0
55761.0,STARLINK-5611,PAYLOAD,2023-12-11 13:53:38,14.98330818,0.0002888,69.9991,129.9129,274.065,86.0179,5.282e-06,-3e-07,0.0,0 STARLINK-5611,1 55761U 23028W   23345.57892172 -.00000030  00000-0  52820-5 0  9993,2 55761  69.9991 129.9129 0002888 274.0650  86.0179 14.98330818 43836,6950.19,96.107,574.063,570.048,0.0
55761.0,STARLINK-5611,PAYLOAD,2023-12-11 20:18:10,14.98332083,0.000282,69.9993,129.2399,271.4218,88.6618,1.9108e-05,1.35e-06,0.0,0 STARLINK-5611,1 55761U 23028W   23345.84596010  .00000135  00000-0  19108-4 0  9991,2 55761  69.9993 129.2399 0002820 271.4218  88.6618 14.98332083 43873,6950.186,96.107,574.011,570.091,0.0
